NORAD_CAT_ID,OBJECT_NAME,OBJECT_TYPE,EPOCH,MEAN_MOTION,ECCENTRICITY,INCLINATION,RA_OF_ASC_NODE,ARG_OF_PERICENTER,MEAN_ANOMALY,BSTAR,MEAN_MOTION_DOT,MEAN_MOTION_DDOT,TLE_LINE0,TLE_LINE1,TLE_LINE2,SEMIMAJOR_AXIS,PERIOD,APOGEE,PERIGEE,DECAYED
55281.0,STARLINK-5298,PAYLOAD,2024-04-09 00:38:46,14.98332744,0.0002911,70.0004,8.5383,271.5081,88.5745,8.6362e-05,9.38e-06,0.0,0 STARLINK-5298,1 55281U 23010N   24100.02693217  .00000938  00000-0  86362-4 0  9993,2 55281  70.0004   8.5383 0002911 271.5081  88.5745 14.98332744 67979,6950.184,96.107,574.073,570.026,0.0
55281.0,STARLINK-5298,PAYLOAD,2024-04-09 03:51:02,14.98333511,0.0002905,70.0004,8.2016,271.5906,88.492,9.2187e-05,1.007e-05,0.0,0 STARLINK-5298,1 55281U 23010N   24100.16045136  .00001007  00000-0  92187-4 0  9999,2 55281  70.0004   8.2016 0002905 271.5906  88.4920 14.98333511 67694,6950.182,96.107,574.066,570.028,0.0
55281.0,STARLINK-5298,PAYLOAD,2024-04-09 16:40:07,14.98329002,0.0002908,70.0004,6.855,271.3455,88.7371,2.6212e-05,2.2e-06,0.0,0 STARLINK-5298,1 55281U 23010N   24100.69453578  .00000220  00000-0  26212-4 0  9992,2 55281  70.0004   6.8550 0002908 271.3455  88.7371 14.98329002 67773,6950.196,96.107,574.082,570.04,0.0
55281.0,STARLINK-5298,PAYLOAD,2024-04-10 10:17:36,14.98334711,0.0002576,70.0018,5.0044,265.753,94.3335,-0.00015227,-1.909e-05,0.0,0 STARLINK-5298,1 55281U 23010N   24101.42889632 -.00001909  00000-0 -15227-3 0  9998,2 55281  70.0018   5.0044 0002576 265.7530  94.3335 14.98334711 68181,6950.178,96.107,573.834,570.253,0.0
55281.0,STARLINK-5298,PAYLOAD,2024-04-10 21:30:33,14.98329228,0.0002808,70.0011,3.8259,267.8139,92.2699,-3.8185e-05,-5.49e-06,0.0,0 STARLINK-5298,1 55281U 23010N   24101.89621688 -.00000549  00000-0 -38185-4 0  9992,2 55281  70.0011   3.8259 0002808 267.8139  92.2699 14.98329228 67955,6950.195,96.107,574.012,570.109,0.0
55281.0,STARLINK-5298,PAYLOAD,2024-04-10 23:06:41,14.98329409,0.0002826,70.0005,3.657,269.4077,90.6758,-3.0403e-05,-4.56e-06,0.0,0 STARLINK-5298,1 55281U 23010N   24101.96297662 -.00000456  00000-0 -30403-4 0  9993,2 55281  70.0005   3.6570 0002826 269.4077  90.6758 14.98329409 68265,6950.195,96.107,574.024,570.096,0.0
55281.0,STARLINK-5298,PAYLOAD,2024-04-11 10:19:37,14.98335583,0.0002771,70.0008,2.4789,269.8115,90.2727,-9.1628e-05,-1.186e-05,0.0,0 STARLINK-5298,1 55281U 23010N   24102.43029380 -.00001186  00000-0 -91628-4 0  9993,2 55281  70.0008   2.4789 0002771 269.8115  90.2727 14.98335583 68333,6950.176,96.107,573.967,570.115,0.0
55281.0,STARLINK-5298,PAYLOAD,2024-04-11 21:32:33,14.98332262,0.0002825,70.0005,1.3007,267.5303,92.5532,2.9283e-05,2.56e-06,0.0,0 STARLINK-5298,1 55281U 23010N   24102.89761267  .00000256  00000-0  29283-4 0  9993,2 55281  70.0005   1.3007 0002825 267.5303  92.5532 14.98332262 68100,6950.186,96.107,574.014,570.087,0.0
55281.0,STARLINK-5298,PAYLOAD,2024-04-12 02:20:57,14.98333943,0.0002793,70.0006,0.7953,269.9229,90.161,4.3263e-05,4.23e-06,0.0,0 STARLINK-5298,1 55281U 23010N   24103.09789101  .00000423  00000-0  43263-4 0  9993,2 55281  70.0006   0.7953 0002793 269.9229  90.1610 14.98333943 68435,6950.181,96.107,573.987,570.105,0.0
55281.0,STARLINK-5298,PAYLOAD,2024-04-13 02:22:58,14.98332507,0.0002833,70.0005,358.2704,270.3129,89.7706,6.2999e-05,6.59e-06,0.0,0 STARLINK-5298,1 55281U 23010N   24104.09929037  .00000659  00000-0  62999-4 0  9996,2 55281  70.0005 358.2704 0002833 270.3129  89.7706 14.98332507 68287,6950.185,96.107,574.019,570.081,0.0
55281.0,STARLINK-5298,PAYLOAD,2024-04-13 20:00:29,14.98310205,0.0002881,70.0006,356.4192,271.0167,89.0661,-0.0001997,-2.474e-05,0.0,0 STARLINK-5298,1 55281U 23010N   24104.83367772 -.00002474  00000-0 -19970-3 0  9999,2 55281  70.0006 356.4192 0002881 271.0167  89.0661 14.98310205 68398,6950.254,96.108,574.121,570.117,0.0
55281.0,STARLINK-5298,PAYLOAD,2024-04-13 21:36:37,14.9830907,0.0002803,70.0013,356.2511,261.6876,98.3965,-0.00017624,-2.194e-05,0.0,0 STARLINK-5298,1 55281U 23010N   24104.90043749 -.00002194  00000-0 -17624-3 0  9995,2 55281  70.0013 356.2511 0002803 261.6876  98.3965 14.98309070 68708,6950.258,96.108,574.071,570.174,0.0
55281.0,STARLINK-5298,PAYLOAD,2024-04-14 20:02:29,14.98331104,0.0003064,70.0006,353.8906,276.8001,83.281,2.7953e-05,2.41e-06,0.0,0 STARLINK-5298,1 55281U 23010N   24105.83506423  .00000241  00000-0  27953-4 0  9997,2 55281  70.0006 353.8906 0003064 276.8001  83.2810 14.98331104 68546,6950.189,96.107,574.184,569.925,0.0
55281.0,STARLINK-5298,PAYLOAD,2024-04-14 21:38:37,14.98331263,0.0002718,70.0013,353.723,278.3256,81.7595,4.2328e-05,4.12e-06,0.0,0 STARLINK-5298,1 55281U 23010N   24105.90182456  .00000412  00000-0  42328-4 0  9994,2 55281  70.0013 353.7230 0002718 278.3256  81.7595 14.98331263 68850,6950.189,96.107,573.943,570.165,0.0
55281.0,STARLINK-5298,PAYLOAD,2024-04-15 02:27:01,14.98337302,0.00022,70.0017,353.2216,284.9067,75.1848,0.00012654,1.418e-05,0.0,0 STARLINK-5298,1 55281U 23010N   24106.10209990  .00001418  00000-0  12654-3 0  9995,2 55281  70.0017 353.2216 0002200 284.9067  75.1848 14.98337302 68580,6950.17,96.107,573.564,570.506,0.0
55281.0,STARLINK-5298,PAYLOAD,2024-04-15 21:40:37,14.98333888,0.0002543,70.0009,351.2009,262.558,97.5291,0.00034698,4.05e-05,0.0,0 STARLINK-5298,1 55281U 23010N   24106.90321402  .00004050  00000-0  34698-3 0  9993,2 55281  70.0009 351.2009 0002543 262.5580  97.5291 14.98333888 69004,6950.181,96.107,573.813,570.278,0.0
55281.0,STARLINK-5298,PAYLOAD,2024-04-16 02:29:01,14.98338391,0.0002232,70.0015,350.6968,258.1866,101.9042,0.00038701,4.529e-05,0.0,0 STARLINK-5298,1 55281U 23010N   24107.10348998  .00004529  00000-0  38701-3 0  9995,2 55281  70.0015 350.6968 0002232 258.1866 101.9042 14.98338391 68738,6950.167,96.106,573.583,570.481,0.0
55281.0,STARLINK-5298,PAYLOAD,2024-04-16 08:53:34,14.98338337,0.0002622,70.0022,350.0218,275.3581,84.7279,0.00028708,3.335e-05,0.0,0 STARLINK-5298,1 55281U 23010N   24107.37053308  .00003335  00000-0  28708-3 0  9992,2 55281  70.0022 350.0218 0002622 275.3581  84.7279 14.98338337 69074,6950.167,96.106,573.854,570.21,0.0
55281.0,STARLINK-5298,PAYLOAD,2024-04-16 20:06:29,14.98347942,0.0002844,70.0005,348.8464,257.9327,102.1513,4.2072e-05,4.09e-06,0.0,0 STARLINK-5298,1 55281U 23010N   24107.83784563  .00000409  00000-0  42072-4 0  9997,2 55281  70.0005 348.8464 0002844 257.9327 102.1513 14.98347942 69149,6950.137,96.106,573.979,570.026,0.0
55281.0,STARLINK-5298,PAYLOAD,2024-04-17 02:31:01,14.98351039,0.0002588,70.0011,348.1722,256.3985,103.6886,0.00010065,1.109e-05,0.0,0 STARLINK-5298,1 55281U 23010N   24108.10487997  .00001109  00000-0  10065-3 0  9993,2 55281  70.0011 348.1722 0002588 256.3985 103.6886 14.98351039 68885,6950.128,96.106,573.792,570.194,0.0
55281.0,STARLINK-5298,PAYLOAD,2024-04-17 21:44:39,14.98361261,0.0002795,70.0015,346.1514,272.5417,87.5422,-0.00085658,-0.00010307,0.0,0 STARLINK-5298,1 55281U 23010N   24108.90601766 -.00010307  00000-0 -85658-3 0  9995,2 55281  70.0015 346.1514 0002795 272.5417  87.5422 14.98361261 69005,6950.096,96.105,573.904,570.019,0.0
55281.0,STARLINK-5298,PAYLOAD,2024-04-18 02:33:04,14.98326617,0.0003111,69.9999,345.6457,275.0157,85.0646,-0.00024056,-2.962e-05,0.0,0 STARLINK-5298,1 55281U 23010N   24109.10630079 -.00002962  00000-0 -24056-3 0  9990,2 55281  69.9999 345.6457 0003111 275.0157  85.0646 14.98326617 69035,6950.203,96.107,574.231,569.906,0.0
55281.0,STARLINK-5298,PAYLOAD,2024-04-18 20:10:32,14.98333779,0.0003299,69.9996,343.7939,272.6423,87.4358,2.4558e-05,2e-06,0.0,0 STARLINK-5298,1 55281U 23010N   24109.84064980  .00000200  00000-0  24558-4 0  9992,2 55281  69.9996 343.7939 0003299 272.6423  87.4358 14.98333779 69147,6950.181,96.107,574.339,569.753,0.0
55281.0,STARLINK-5298,PAYLOAD,2024-04-18 21:46:40,14.98335958,0.0003237,69.9997,343.6258,267.0454,93.0335,1.5076e-05,8.7e-07,0.0,0 STARLINK-5298,1 55281U 23010N   24109.90740844  .00000087  00000-0  15076-4 0  9997,2 55281  69.9997 343.6258 0003237 267.0454  93.0335 14.98335958 69458,6950.174,96.107,574.289,569.79,0.0
55281.0,STARLINK-5298,PAYLOAD,2024-04-19 00:58:55,14.98346016,0.0003277,69.9997,343.2894,270.1334,89.945,0.00010049,1.107e-05,0.0,0 STARLINK-5298,1 55281U 23010N   24110.04091983  .00001107  00000-0  10049-3 0  9995,2 55281  69.9997 343.2894 0003277 270.1334  89.9450 14.98346016 69174,6950.143,96.106,574.286,569.731,0.0
55281.0,STARLINK-5298,PAYLOAD,2024-04-19 20:12:32,14.98326268,0.0002683,70.0016,341.2717,261.9346,98.1509,0.00034652,4.044e-05,0.0,0 STARLINK-5298,1 55281U 23010N   24110.84204831  .00004044  00000-0  34652-3 0  9990,2 55281  70.0016 341.2717 0002683 261.9346  98.1509 14.98326268 69299,6950.204,96.107,573.934,570.205,0.0
55281.0,STARLINK-5298,PAYLOAD,2024-04-19 21:48:41,14.98326613,0.0002673,70.0014,341.1028,259.162,100.9239,0.00033945,3.959e-05,0.0,0 STARLINK-5298,1 55281U 23010N   24110.90880819  .00003959  00000-0  33945-3 0  9991,2 55281  70.0014 341.1028 0002673 259.1620 100.9239 14.98326613 69605,6950.203,96.107,573.926,570.211,0.0
55281.0,STARLINK-5298,PAYLOAD,2024-04-20 01:00:57,14.98330564,0.000247,70.0015,340.765,270.6997,89.3879,0.00040078,4.692e-05,0.0,0 STARLINK-5298,1 55281U 23010N   24111.04232661  .00004692  00000-0  40078-3 0  9993,2 55281  70.0015 340.7650 0002470 270.6997  89.3879 14.98330564 69624,6950.191,96.107,573.773,570.339,0.0
55281.0,STARLINK-5298,PAYLOAD,2024-04-20 20:14:36,14.98312706,0.0003035,70.0007,338.7474,264.6147,95.4666,-0.00023698,-2.918e-05,0.0,0 STARLINK-5298,1 55281U 23010N   24111.84347485 -.00002918  00000-0 -23698-3 0  9992,2 55281  70.0007 338.7474 0003035 264.6147  95.4666 14.98312706 69444,6950.246,96.108,574.221,570.002,0.0
55281.0,STARLINK-5298,PAYLOAD,2024-04-20 21:50:44,14.98312873,0.0002965,70.0004,338.5778,264.9676,95.1145,-0.0002335,-2.877e-05,0.0,0 STARLINK-5298,1 55281U 23010N   24111.91023522 -.00002877  00000-0 -23350-3 0  9992,2 55281  70.0004 338.5778 0002965 264.9676  95.1145 14.98312873 69755,6950.246,96.108,574.172,570.05,0.0
